[{"OBJECT_NAME":"STARLINK-5797","OBJECT_ID":"2023-028AV","EPOCH":"2026-03-09T18:03:55.345824","MEAN_MOTION":14.98326824,"ECCENTRICITY":0.00032648,"INCLINATION":70.0015,"RA_OF_ASC_NODE":204.3748,"ARG_OF_PERICENTER":274.06,"MEAN_ANOMALY":86.0186,"EPHEMERIS_TYPE":0,"CLASSIFICATION_TYPE":"U","NORAD_CAT_ID":55784,"ELEMENT_SET_NO":999,"REV_AT_EPOCH":16703,"BSTAR":-0.00010478764,"MEAN_MOTION_DOT":-1.343e-5,"MEAN_MOTION_DDOT":0},{"OBJECT_NAME":"FENGYUN 1C DEB","OBJECT_ID":"1999-025ANY","EPOCH":"2026-03-09T08:51:51.179904","MEAN_MOTION":14.80233032,"ECCENTRICITY":0.01316132,"INCLINATION":98.9514,"RA_OF_ASC_NODE":17.5129,"ARG_OF_PERICENTER":213.735,"MEAN_ANOMALY":278.8739,"EPHEMERIS_TYPE":0,"CLASSIFICATION_TYPE":"U","NORAD_CAT_ID":30641,"ELEMENT_SET_NO":999,"REV_AT_EPOCH":1813,"BSTAR":0.00059169636,"MEAN_MOTION_DOT":5.147e-5,"MEAN_MOTION_DDOT":0}]
